{"type":"FeatureCollection","features":[{"type":"Feature","geometry":{"type":"Polygon","coordinates":[[[-77.7544,39.3335],[-77.7597,39.3375],[-77.7608,39.3428],[-77.7476,39.3513],[-77.7433,39.3621],[-77.753,39.3817],[-77.7366,39.3871],[-77.7384,39.399],[-77.7529,39.423],[-77.7579,39.4264],[-77.7877,39.4292],[-77.8032,39.4373],[-77.8009,39.4407],[-77.7853,39.4454],[-77.7983,39.4561],[-77.798,39.4608],[-77.7806,39.4598],[-77.7776,39.4623],[-77.7954,39.4712],[-77.7972,39.4801],[-77.7673,39.4913],[-77.7663,39.4962],[-77.7822,39.499],[-77.7916,39.491],[-77.8029,39.4895],[-77.8454,39.4981],[-77.8466,39.5046],[-77.8258,39.5167],[-77.8247,39.5285],[-77.837,39.5321],[-77.8406,39.5291],[-77.8419,39.5184],[-77.8612,39.5143],[-77.8661,39.5184],[-77.8653,39.5384],[-77.8887,39.5554],[-77.8869,39.56],[-77.8785,39.5634],[-77.8361,39.5667],[-77.8298,39.5878],[-77.8334,39.6028],[-77.8406,39.6068],[-77.8639,39.6088],[-77.8849,39.6158],[-77.887,39.6136],[-77.8812,39.6064],[-77.8812,39.601],[-77.892,39.5978],[-77.9227,39.6047],[-77.9318,39.6168],[-77.9409,39.6191],[-77.9448,39.6156],[-77.9356,39.6088],[-77.9364,39.5945],[-77.9391,39.587],[-77.9461,39.5848],[-77.951,39.5895],[-77.9506,39.6038],[-77.955,39.6081],[-77.9672,39.6071],[-77.9776,39.5996],[-78.0101,39.603],[-78.0373,39.637],[-78.0806,39.6705],[-78.0895,39.6714],[-78.1053,39.6817],[-78.1765,39.696],[-78.191,39.6903],[-78.2022,39.6769],[-78.2271,39.6762],[-78.2326,39.6736],[-78.2238,39.6605],[-78.2541,39.6402],[-78.2623,39.6305],[-78.2661,39.6191],[-78.286,39.6212],[-78.3109,39.6306],[-78.3553,39.6407],[-78.3593,39.6372],[-78.3535,39.6306],[-78.3555,39.6261],[-78.3738,39.6304],[-78.3824,39.6278],[-78.3834,39.6229],[-78.372,39.6119],[-78.3756,39.6083],[-78.3839,39.609],[-78.3965,39.6164],[-78.4205,39.6241],[-78.4301,39.6234],[-78.4335,39.6182],[-78.4255,39.6077],[-78.3989,39.5916],[-78.3948,39.5852],[-78.4074,39.5786],[-78.4435,39.5913],[-78.4568,39.5876],[-78.458,39.5797],[-78.4543,39.5741],[-78.4263,39.5592],[-78.417,39.5486],[-78.4245,39.5452],[-78.4315,39.5523],[-78.4377,39.5534],[-78.4391,39.5508],[-78.4346,39.5422],[-78.4379,39.5385],[-78.4504,39.5498],[-78.4611,39.5508],[-78.4605,39.5462],[-78.4499,39.5434],[-78.4486,39.54],[-78.4624,39.5364],[-78.4618,39.5223],[-78.4719,39.5159],[-78.4836,39.5195],[-78.5033,39.5186],[-78.5231,39.5249],[-78.5661,39.5194],[-78.5786,39.5267],[-78.5876,39.5277],[-78.5922,39.5317],[-78.5909,39.5367],[-78.6026,39.532],[-78.6231,39.5397],[-78.6547,39.5346],[-78.6896,39.5458],[-78.695,39.5538],[-78.7075,39.5558],[-78.7146,39.5628],[-78.7246,39.5639],[-78.7316,39.5746],[-78.7334,39.5865],[-78.7402,39.5864],[-78.7463,39.5798],[-78.757,39.5808],[-78.7671,39.5875],[-78.7703,39.595],[-78.7781,39.6015],[-78.7768,39.6041],[-78.7608,39.6101],[-78.7512,39.61],[-78.7468,39.6057],[-78.7332,39.6153],[-78.7368,39.6222],[-78.7468,39.6267],[-78.7634,39.6188],[-78.7776,39.622],[-78.7726,39.6369],[-78.7647,39.6459],[-78.7661,39.6485],[-78.7753,39.6457],[-78.7812,39.6368],[-78.7949,39.6371],[-78.7975,39.6293],[-78.8014,39.6284],[-78.7958,39.6134],[-78.7965,39.6059],[-78.809,39.6082],[-78.8119,39.598],[-78.8184,39.5941],[-78.8193,39.5899],[-78.8257,39.5892],[-78.8262,39.5773],[-78.8199,39.5763],[-78.8149,39.5713],[-78.8132,39.5672],[-78.8158,39.5629],[-78.8219,39.5606],[-78.8392,39.567],[-78.851,39.5601],[-78.8521,39.551],[-78.8614,39.541],[-78.8707,39.5388],[-78.8694,39.5318],[-78.8751,39.5227],[-78.8931,39.524],[-78.8924,39.5133],[-78.9055,39.5115],[-78.9041,39.5041],[-78.9167,39.4863],[-78.9343,39.4863],[-78.9425,39.4806],[-78.9385,39.4746],[-78.9425,39.4689],[-78.9589,39.4628],[-78.9543,39.4547],[-78.9605,39.451],[-78.956,39.4478],[-78.9566,39.4403],[-78.9657,39.4385],[-78.9777,39.4483],[-79.0109,39.4611],[-79.018,39.4677],[-79.0309,39.4653],[-79.037,39.4767],[-79.047,39.4833],[-79.0527,39.4817],[-79.0569,39.4707],[-79.061,39.4719],[-79.0663,39.48],[-79.0693,39.474],[-79.083,39.4715],[-79.1024,39.4764],[-79.1055,39.4739],[-79.1044,39.4708],[-79.0945,39.4648],[-79.1079,39.4612],[-79.1083,39.4571],[-79.1018,39.4572],[-79.1028,39.4505],[-79.1169,39.4389],[-79.1108,39.4319],[-79.124,39.4332],[-79.129,39.4295],[-79.1274,39.4182],[-79.1418,39.4171],[-79.1411,39.4087],[-79.1438,39.4052],[-79.15,39.4061],[-79.1512,39.417],[-79.1595,39.417],[-79.1594,39.4095],[-79.1667,39.4009],[-79.1623,39.3881],[-79.1661,39.3874],[-79.1792,39.3965],[-79.1811,39.3944],[-79.177,39.389],[-79.1856,39.3852],[-79.1977,39.3884],[-79.2024,39.3788],[-79.2126,39.3702],[-79.2143,39.3635],[-79.231,39.3649],[-79.235,39.3587],[-79.2426,39.3594],[-79.2506,39.3555],[-79.2563,39.3572],[-79.2535,39.3479],[-79.2574,39.3419],[-79.2538,39.3371],[-79.2602,39.3343],[-79.2687,39.3362],[-79.2704,39.3289],[-79.2821,39.3233],[-79.2839,39.3098],[-79.2904,39.2995],[-79.3034,39.2996],[-79.3139,39.3047],[-79.3213,39.3],[-79.3326,39.3001],[-79.3404,39.2937],[-79.346,39.294],[-79.3449,39.285],[-79.3513,39.2851],[-79.3523,39.2802],[-79.3575,39.2763],[-79.376,39.2732],[-79.3819,39.2669],[-79.3873,39.2678],[-79.3874,39.2635],[-79.3933,39.2616],[-79.4122,39.2402],[-79.4203,39.2389],[-79.4207,39.2354],[-79.4252,39.2345],[-79.4257,39.2253],[-79.433,39.2239],[-79.4533,39.2105],[-79.4674,39.2088],[-79.4729,39.2021],[-79.4869,39.2059],[-79.4877,39.2799],[-79.4824,39.5317],[-79.4789,39.5317],[-79.4767,39.7211],[-80.5193,39.7214],[-80.519,40.6388],[-80.5511,40.6288],[-80.5767,40.6142],[-80.5988,40.6253],[-80.6265,40.6202],[-80.6635,40.5908],[-80.6678,40.5781],[-80.6644,40.57],[-80.6524,40.5625],[-80.6331,40.5387],[-80.6275,40.5358],[-80.618,40.502],[-80.5954,40.4753],[-80.596,40.4634],[-80.6122,40.4348],[-80.6123,40.4028],[-80.6322,40.3937],[-80.6327,40.3905],[-80.6314,40.3857],[-80.6191,40.3819],[-80.6097,40.3749],[-80.6076,40.3696],[-80.6128,40.3477],[-80.5999,40.3177],[-80.6029,40.3071],[-80.6149,40.292],[-80.6193,40.2652],[-80.6521,40.245],[-80.6615,40.2298],[-80.6681,40.1997],[-80.6861,40.1816],[-80.7056,40.1535],[-80.7102,40.1383],[-80.7071,40.1111],[-80.7095,40.1003],[-80.7313,40.0864],[-80.7382,40.0786],[-80.7382,40.0665],[-80.7333,40.0586],[-80.731,40.0443],[-80.7422,40.0086],[-80.7389,39.9856],[-80.7401,39.9708],[-80.7579,39.9597],[-80.7643,39.95],[-80.7561,39.9134],[-80.7634,39.9086],[-80.787,39.9184],[-80.7997,39.9196],[-80.8068,39.9163],[-80.8092,39.9039],[-80.794,39.8828],[-80.7908,39.8673],[-80.7999,39.8589],[-80.8213,39.85],[-80.8261,39.8442],[-80.8222,39.8117],[-80.8261,39.7986],[-80.863,39.7752],[-80.8691,39.7664],[-80.8703,39.7632],[-80.8653,39.7533],[-80.8527,39.741],[-80.846,39.7387],[-80.8316,39.7195],[-80.8298,39.7118],[-80.8339,39.7035],[-80.852,39.6986],[-80.8637,39.6917],[-80.8666,39.6526],[-80.8804,39.6207],[-80.8922,39.6168],[-80.9176,39.6187],[-80.9283,39.6166],[-80.9735,39.5884],[-81.071,39.5156],[-81.1008,39.4872],[-81.1147,39.4656],[-81.1325,39.4463],[-81.1676,39.4401],[-81.1851,39.4315],[-81.2082,39.4071],[-81.2117,39.393],[-81.2173,39.3876],[-81.2236,39.3861],[-81.2444,39.3904],[-81.2703,39.386],[-81.3018,39.3722],[-81.3449,39.3468],[-81.376,39.3417],[-81.3846,39.3434],[-81.3938,39.3517],[-81.4067,39.3881],[-81.4127,39.3946],[-81.4356,39.4085],[-81.4561,39.4093],[-81.4732,39.4002],[-81.5032,39.3732],[-81.5423,39.3529],[-81.5575,39.3388],[-81.5652,39.2762],[-81.5702,39.2677],[-81.5856,39.2687],[-81.6058,39.2759],[-81.6222,39.2737],[-81.6453,39.2773],[-81.6702,39.276],[-81.6836,39.2709],[-81.6966,39.2561],[-81.6919,39.227],[-81.7009,39.2208],[-81.7256,39.2159],[-81.7369,39.1926],[-81.7512,39.186],[-81.7562,39.1805],[-81.7428,39.1427],[-81.7452,39.1382],[-81.7424,39.1113],[-81.7461,39.097],[-81.7608,39.0841],[-81.7756,39.0784],[-81.8067,39.0841],[-81.8139,39.0797],[-81.8124,39.0613],[-81.8081,39.0538],[-81.8004,39.045],[-81.7729,39.0262],[-81.7643,39.0153],[-81.7652,39.0026],[-81.7741,38.9937],[-81.7818,38.9649],[-81.7788,38.9559],[-81.757,38.9372],[-81.7571,38.9312],[-81.7627,38.9241],[-81.7741,38.923],[-81.7856,38.9262],[-81.8112,38.9447],[-81.8274,38.9459],[-81.8445,38.9287],[-81.8453,38.9101],[-81.856,38.8927],[-81.8892,38.8743],[-81.903,38.8761],[-81.928,38.8935],[-81.9267,38.9013],[-81.8985,38.9296],[-81.9006,38.9377],[-81.9332,38.9877],[-81.9514,38.996],[-81.9794,38.9932],[-81.9914,39.0184],[-82.0045,39.0289],[-82.0219,39.0295],[-82.0377,39.0239],[-82.0516,38.9944],[-82.0916,38.9738],[-82.0949,38.9646],[-82.1091,38.9456],[-82.1117,38.9326],[-82.1112,38.9366],[-82.1294,38.9079],[-82.1432,38.8981],[-82.1454,38.8842],[-82.1392,38.865],[-82.1455,38.8397],[-82.1636,38.8234],[-82.1912,38.8151],[-82.2114,38.8012],[-82.2216,38.7872],[-82.2196,38.7723],[-82.1989,38.7577],[-82.188,38.7331],[-82.1869,38.7223],[-82.1931,38.7377],[-82.1825,38.7088],[-82.1909,38.6804],[-82.1722,38.6272],[-82.1732,38.6124],[-82.1773,38.6038],[-82.1888,38.595],[-82.2052,38.5917],[-82.2215,38.5913],[-82.2467,38.5986],[-82.2621,38.5982],[-82.2743,38.5937],[-82.2913,38.579],[-82.2957,38.5385],[-82.304,38.5177],[-82.3042,38.4963],[-82.3181,38.4579],[-82.3303,38.4445],[-82.3818,38.4348],[-82.4049,38.4393],[-82.541,38.4038],[-82.5734,38.4057],[-82.5888,38.4136],[-82.5935,38.4218],[-82.5971,38.4108],[-82.5946,38.3983],[-82.5995,38.3908],[-82.5927,38.3768],[-82.5976,38.3649],[-82.5981,38.3459],[-82.5767,38.3285],[-82.5718,38.3172],[-82.583,38.2968],[-82.5741,38.2746],[-82.5746,38.2639],[-82.5833,38.2468],[-82.6046,38.2477],[-82.6122,38.2363],[-82.6086,38.2235],[-82.5983,38.2174],[-82.5991,38.1972],[-82.6116,38.1713],[-82.6194,38.1689],[-82.6389,38.1711],[-82.6445,38.1652],[-82.6386,38.1559],[-82.6366,38.138],[-82.6218,38.1333],[-82.6192,38.1205],[-82.6062,38.1208],[-82.587,38.1087],[-82.5834,38.09],[-82.5739,38.0819],[-82.566,38.081],[-82.5596,38.0728],[-82.5498,38.0695],[-82.5442,38.0526],[-82.5371,38.0447],[-82.5387,38.0374],[-82.5263,38.027],[-82.5251,38.0175],[-82.5198,38.0084],[-82.5155,38.0066],[-82.5192,38.0011],[-82.4887,37.9989],[-82.4836,37.9838],[-82.4722,37.9867],[-82.4646,37.9839],[-82.4646,37.9774],[-82.4689,37.9732],[-82.4844,37.9709],[-82.4845,37.9636],[-82.4718,37.9587],[-82.4856,37.9458],[-82.4972,37.9462],[-82.497,37.942],[-82.4893,37.9382],[-82.4913,37.9357],[-82.5,37.9368],[-82.5024,37.9335],[-82.4959,37.927],[-82.4807,37.9262],[-82.4883,37.9177],[-82.4756,37.9118],[-82.4744,37.9],[-82.4714,37.8991],[-82.4684,37.9032],[-82.468,37.9139],[-82.463,37.9148],[-82.46,37.9095],[-82.4519,37.9086],[-82.4376,37.8998],[-82.432,37.8899],[-82.4199,37.8849],[-82.4176,37.8703],[-82.4075,37.8673],[-82.4246,37.8614],[-82.4147,37.856],[-82.4205,37.8464],[-82.4129,37.8448],[-82.4087,37.8361],[-82.3993,37.8295],[-82.4015,37.8097],[-82.3966,37.8089],[-82.3867,37.8182],[-82.3766,37.8022],[-82.369,37.8013],[-82.3639,37.795],[-82.3551,37.7934],[-82.349,37.7869],[-82.3401,37.7856],[-82.3375,37.7749],[-82.3239,37.775],[-82.3231,37.7727],[-82.3336,37.7672],[-82.3334,37.7644],[-82.3285,37.7621],[-82.3115,37.7646],[-82.311,37.7612],[-82.3196,37.7583],[-82.3213,37.7516],[-82.3342,37.7428],[-82.3189,37.7337],[-82.3161,37.7211],[-82.3114,37.7185],[-82.3077,37.708],[-82.2964,37.7022],[-82.3029,37.6936],[-82.2959,37.6862],[-82.3043,37.6761],[-82.295,37.6781],[-82.2946,37.6704],[-82.2881,37.6681],[-82.2825,37.6759],[-82.2713,37.6636],[-82.2581,37.6569],[-82.2409,37.6615],[-82.2361,37.6596],[-82.2262,37.6529],[-82.2242,37.6447],[-82.2168,37.6416],[-82.2205,37.6348],[-82.2145,37.6254],[-82.1872,37.627],[-82.1867,37.6351],[-82.1911,37.6446],[-82.1858,37.6486],[-82.1751,37.6478],[-82.1776,37.6408],[-82.1724,37.6326],[-82.1817,37.6271],[-82.1812,37.6215],[-82.1767,37.6182],[-82.169,37.6219],[-82.1642,37.6203],[-82.1696,37.613],[-82.1688,37.6091],[-82.1567,37.609],[-82.1569,37.5927],[-82.1484,37.5907],[-82.1399,37.595],[-82.1313,37.5927],[-82.1273,37.5865],[-82.1244,37.5774],[-82.1262,37.5737],[-82.1418,37.5711],[-82.1449,37.5677],[-82.1344,37.5629],[-82.1332,37.5528],[-82.1234,37.5515],[-82.118,37.559],[-82.1048,37.5602],[-82.102,37.5584],[-82.104,37.5529],[-82.0752,37.5559],[-82.0639,37.5431],[-82.0648,37.5372],[-82.0503,37.5354],[-82.0462,37.5279],[-82.042,37.5342],[-82.045,37.5447],[-82.043,37.5481],[-82.0392,37.5478],[-82.037,37.5425],[-82.0296,37.5378],[-82.0196,37.5406],[-82.016,37.534],[-82.0108,37.5329],[-81.9983,37.5433],[-81.9941,37.5377],[-81.9891,37.5428],[-81.9817,37.5421],[-81.9701,37.5467],[-81.9649,37.5429],[-81.9677,37.5331],[-81.9575,37.5355],[-81.9574,37.5296],[-81.9542,37.5281],[-81.9439,37.5312],[-81.9476,37.5259],[-81.9435,37.5208],[-81.9443,37.5133],[-81.9378,37.5136],[-81.9341,37.5195],[-81.9265,37.5147],[-81.9277,37.5121],[-81.943,37.5086],[-81.946,37.5019],[-81.9531,37.5013],[-81.9533,37.4918],[-81.965,37.4935],[-81.9776,37.4846],[-81.9909,37.4844],[-81.9966,37.4767],[-81.9956,37.4698],[-81.987,37.4549],[-81.9762,37.4572],[-81.9688,37.4515],[-81.9704,37.4477],[-81.9576,37.4491],[-81.9491,37.4456],[-81.9458,37.4402],[-81.9356,37.4384],[-81.9356,37.432],[-81.9406,37.4291],[-81.9389,37.422],[-81.9325,37.4152],[-81.923,37.4114],[-81.9243,37.4073],[-81.93,37.4053],[-81.9288,37.3938],[-81.9339,37.3907],[-81.9318,37.3855],[-81.9367,37.3807],[-81.9311,37.3758],[-81.9334,37.3693],[-81.926,37.3655],[-81.9285,37.3605],[-81.9218,37.3571],[-81.9177,37.3492],[-81.9102,37.349],[-81.9072,37.3426],[-81.8996,37.3416],[-81.8977,37.3332],[-81.8939,37.33],[-81.8794,37.3325],[-81.8725,37.3224],[-81.8605,37.3159],[-81.8657,37.3095],[-81.8596,37.3048],[-81.8545,37.3066],[-81.8541,37.29],[-81.8499,37.2852],[-81.8344,37.2854],[-81.8345,37.2818],[-81.8258,37.2791],[-81.8007,37.2857],[-81.7936,37.2848],[-81.7931,37.2812],[-81.7893,37.2844],[-81.7824,37.2823],[-81.7732,37.2739],[-81.7571,37.2761],[-81.7576,37.2686],[-81.7461,37.2637],[-81.7457,37.2581],[-81.7409,37.2543],[-81.7444,37.2433],[-81.7401,37.2378],[-81.7231,37.2405],[-81.7162,37.2343],[-81.7157,37.2288],[-81.6993,37.2199],[-81.6951,37.2136],[-81.6836,37.2116],[-81.6833,37.2056],[-81.6782,37.2015],[-81.5547,37.208],[-81.5456,37.2202],[-81.5076,37.2337],[-81.5065,37.2452],[-81.4991,37.258],[-81.4923,37.251],[-81.4801,37.2511],[-81.4761,37.2556],[-81.4621,37.2599],[-81.4589,37.2629],[-81.4606,37.2655],[-81.4477,37.2722],[-81.4395,37.2709],[-81.4356,37.2742],[-81.4279,37.271],[-81.416,37.2736],[-81.416,37.2789],[-81.4116,37.2803],[-81.4023,37.2958],[-81.4051,37.2988],[-81.3968,37.3045],[-81.3987,37.3102],[-81.3943,37.3164],[-81.3863,37.3206],[-81.3794,37.3176],[-81.3727,37.3202],[-81.3645,37.338],[-81.3201,37.2993],[-81.2251,37.2349],[-81.167,37.2629],[-81.1041,37.2806],[-81.0361,37.2903],[-80.9796,37.3023],[-80.9822,37.296],[-80.977,37.2918],[-80.9442,37.2966],[-80.8992,37.3157],[-80.869,37.3386],[-80.8495,37.3469],[-80.8832,37.3839],[-80.863,37.4115],[-80.8653,37.4201],[-80.8595,37.4295],[-80.8463,37.4234],[-80.8372,37.4254],[-80.8086,37.4065],[-80.8057,37.398],[-80.7842,37.3946],[-80.7701,37.3724],[-80.7163,37.3887],[-80.6459,37.4221],[-80.6344,37.4312],[-80.6227,37.4333],[-80.6168,37.4394],[-80.552,37.4736],[-80.5369,37.474],[-80.5114,37.4817],[-80.493,37.4577],[-80.4973,37.4448],[-80.4949,37.4351],[-80.4755,37.423],[-80.4648,37.4261],[-80.4256,37.4499],[-80.372,37.4741],[-80.3632,37.48],[-80.3668,37.4849],[-80.3271,37.4954],[-80.2998,37.5083],[-80.2824,37.5335],[-80.2917,37.5365],[-80.3093,37.5274],[-80.3304,37.5363],[-80.3275,37.5401],[-80.3122,37.5462],[-80.3285,37.5643],[-80.2589,37.5955],[-80.2403,37.607],[-80.221,37.6278],[-80.2408,37.6383],[-80.2675,37.6462],[-80.2794,37.6571],[-80.2959,37.6928],[-80.2871,37.6964],[-80.2644,37.7188],[-80.2531,37.7259],[-80.252,37.7298],[-80.2603,37.7335],[-80.2628,37.7383],[-80.2574,37.7561],[-80.2509,37.7555],[-80.2517,37.7632],[-80.2484,37.7683],[-80.2414,37.7681],[-80.2409,37.7724],[-80.2305,37.7783],[-80.2166,37.776],[-80.2159,37.782],[-80.2235,37.7824],[-80.223,37.7867],[-80.2295,37.7923],[-80.2277,37.7979],[-80.2186,37.8098],[-80.2065,37.816],[-80.193,37.8347],[-80.1794,37.8398],[-80.1836,37.8468],[-80.1828,37.8514],[-80.1767,37.8528],[-80.1622,37.8751],[-80.1498,37.8834],[-80.149,37.8869],[-80.1415,37.8824],[-80.1298,37.8942],[-80.1177,37.8977],[-80.119,37.9036],[-80.1029,37.9189],[-80.0966,37.9181],[-80.0745,37.9422],[-80.0561,37.952],[-80.0131,37.9843],[-80.0122,37.9886],[-79.9994,37.9949],[-79.9955,38.0071],[-79.9861,38.0142],[-79.9803,38.0276],[-79.9716,38.0352],[-79.9739,38.04],[-79.9602,38.0625],[-79.9616,38.0674],[-79.9544,38.0804],[-79.9264,38.1065],[-79.9389,38.1116],[-79.9453,38.1322],[-79.9327,38.1362],[-79.9261,38.1496],[-79.9187,38.1548],[-79.9195,38.1626],[-79.9162,38.1631],[-79.9149,38.1677],[-79.9188,38.1701],[-79.9165,38.1768],[-79.921,38.18],[-79.9201,38.1825],[-79.9144,38.1884],[-79.9074,38.188],[-79.8973,38.1934],[-79.8903,38.2059],[-79.883,38.2069],[-79.8746,38.213],[-79.857,38.2311],[-79.8503,38.2333],[-79.8452,38.2411],[-79.8351,38.2419],[-79.8309,38.2497],[-79.8196,38.2482],[-79.8149,38.2516],[-79.812,38.2604],[-79.8063,38.2592],[-79.7983,38.266],[-79.7889,38.2687],[-79.7865,38.2746],[-79.7917,38.2847],[-79.7977,38.292],[-79.8028,38.2921],[-79.8102,38.3067],[-79.7966,38.3235],[-79.7731,38.3355],[-79.7676,38.3443],[-79.7703,38.3478],[-79.7644,38.3565],[-79.7556,38.3574],[-79.7422,38.3532],[-79.7353,38.3552],[-79.7256,38.3638],[-79.7268,38.3708],[-79.7317,38.3734],[-79.7295,38.3812],[-79.7066,38.4157],[-79.6897,38.4315],[-79.6915,38.4463],[-79.6881,38.4504],[-79.6884,38.4569],[-79.6911,38.4637],[-79.6991,38.4703],[-79.6995,38.4745],[-79.6934,38.4802],[-79.6976,38.4872],[-79.6923,38.4965],[-79.6883,38.4962],[-79.683,38.5013],[-79.6804,38.5106],[-79.6705,38.5077],[-79.6685,38.5123],[-79.6622,38.5152],[-79.6668,38.5243],[-79.673,38.5287],[-79.6669,38.5383],[-79.6709,38.541],[-79.6698,38.5503],[-79.6651,38.5609],[-79.6593,38.5624],[-79.6629,38.5704],[-79.658,38.5733],[-79.6492,38.5914],[-79.5718,38.5631],[-79.5555,38.5602],[-79.5369,38.5509],[-79.532,38.5424],[-79.5215,38.5341],[-79.4766,38.4572],[-79.3123,38.4119],[-79.2907,38.421],[-79.2829,38.4181],[-79.2797,38.4237],[-79.2828,38.4317],[-79.2673,38.4383],[-79.2545,38.4559],[-79.2427,38.4542],[-79.2399,38.4701],[-79.2257,38.4765],[-79.2191,38.4874],[-79.2106,38.4929],[-79.207,38.5035],[-79.211,38.508],[-79.2059,38.5245],[-79.1841,38.5515],[-79.1767,38.5655],[-79.171,38.5681],[-79.1709,38.5741],[-79.1583,38.5931],[-79.1593,38.6009],[-79.1544,38.6065],[-79.1515,38.6202],[-79.1376,38.638],[-79.1298,38.655],[-79.1205,38.6602],[-79.1064,38.6562],[-79.0928,38.6598],[-79.0922,38.6681],[-79.0845,38.6851],[-79.0908,38.6925],[-79.093,38.7017],[-79.0855,38.7246],[-79.0724,38.7478],[-79.0573,38.7607],[-79.0557,38.7709],[-79.0513,38.7736],[-79.055,38.7857],[-79.0466,38.7921],[-79.0273,38.7921],[-79.023,38.7986],[-79.0241,38.8092],[-79.0198,38.8117],[-79.0186,38.8188],[-79.0066,38.8237],[-78.999,38.8401],[-78.9998,38.8462],[-78.9938,38.85],[-78.8693,38.763],[-78.8291,38.8186],[-78.7963,38.8751],[-78.786,38.8872],[-78.7591,38.9005],[-78.7504,38.9117],[-78.7505,38.916],[-78.7391,38.9271],[-78.7224,38.9314],[-78.7171,38.936],[-78.7208,38.9136],[-78.7193,38.9052],[-78.7166,38.9045],[-78.7043,38.9152],[-78.6974,38.9144],[-78.6883,38.9248],[-78.6805,38.9253],[-78.6707,38.9338],[-78.6466,38.9681],[-78.6384,38.9668],[-78.6278,38.9818],[-78.6205,38.9826],[-78.6187,38.9741],[-78.6112,38.9761],[-78.6102,38.9705],[-78.6017,38.9646],[-78.5705,39.0016],[-78.5505,39.0181],[-78.5719,39.032],[-78.5402,39.0606],[-78.5227,39.0711],[-78.5165,39.0818],[-78.4952,39.101],[-78.4796,39.1095],[-78.4754,39.1075],[-78.4599,39.1134],[-78.4394,39.1321],[-78.4367,39.1417],[-78.4273,39.1527],[-78.4139,39.1584],[-78.4037,39.1675],[-78.4148,39.1778],[-78.4189,39.1774],[-78.4263,39.1828],[-78.4287,39.1872],[-78.4249,39.1933],[-78.4387,39.1981],[-78.4056,39.2312],[-78.4042,39.2412],[-78.3997,39.2439],[-78.4194,39.2575],[-78.4028,39.2755],[-78.4029,39.2786],[-78.3934,39.283],[-78.3859,39.2949],[-78.3672,39.3101],[-78.3641,39.3188],[-78.36,39.3178],[-78.3463,39.3391],[-78.3474,39.3434],[-78.3393,39.3486],[-78.3404,39.3536],[-78.3669,39.3593],[-78.3432,39.3888],[-78.3509,39.391],[-78.3494,39.3973],[-78.3599,39.409],[-78.3569,39.4169],[-78.3467,39.4276],[-78.3532,39.4368],[-78.3465,39.4426],[-78.3451,39.4595],[-78.3498,39.4618],[-78.3471,39.466],[-78.2628,39.4143],[-78.1582,39.3434],[-77.8283,39.1324],[-77.8221,39.1401],[-77.8214,39.1524],[-77.806,39.1717],[-77.7927,39.2114],[-77.7808,39.2287],[-77.7714,39.2365],[-77.7672,39.249],[-77.7709,39.2494],[-77.7701,39.2564],[-77.7629,39.2583],[-77.7584,39.2651],[-77.7483,39.2937],[-77.7384,39.3082],[-77.7195,39.3213],[-77.7544,39.3335]]]},"properties":{"NAME":"West Virginia"}}]}